[Satellite]
VERSION=1.1
NAME=RS19S (SXC3-219 ISOI)
NICKNAME=RS19S (SXC3-219 ISOI)
TLE1=1 53381U 22096M   22342.50280351  .00011071  00000+0  41344-3 0  9994
TLE2=2 53381  97.4283 243.2840 0005619  38.9362 134.2192 15.27536297 18480
STATUS=0
